[{"OBJECT_NAME":"STARLINK-32278","OBJECT_ID":"2024-138B","EPOCH":"2026-03-09T21:23:15.264096","MEAN_MOTION":15.30188317,"ECCENTRICITY":0.00011121,"INCLINATION":53.1602,"RA_OF_ASC_NODE":309.0031,"ARG_OF_PERICENTER":93.5607,"MEAN_ANOMALY":266.5521,"EPHEMERIS_TYPE":0,"CLASSIFICATION_TYPE":"U","NORAD_CAT_ID":60356,"ELEMENT_SET_NO":999,"REV_AT_EPOCH":9065,"BSTAR":4.7715253e-5,"MEAN_MOTION_DOT":1.054e-5,"MEAN_MOTION_DDOT":0},{"OBJECT_NAME":"OBJECT B","OBJECT_ID":"2024-203B","EPOCH":"2026-03-09T23:52:52.928256","MEAN_MOTION":15.27506959,"ECCENTRICITY":0.00103904,"INCLINATION":97.4268,"RA_OF_ASC_NODE":139.5887,"ARG_OF_PERICENTER":321.1475,"MEAN_ANOMALY":38.9016,"EPHEMERIS_TYPE":0,"CLASSIFICATION_TYPE":"U","NORAD_CAT_ID":61870,"ELEMENT_SET_NO":999,"REV_AT_EPOCH":7381,"BSTAR":0.00063263842,"MEAN_MOTION_DOT":0.00016997,"MEAN_MOTION_DDOT":0}]
